#dP2021  5 19 18  0  0.00000000      96 __u+U ITR00 EXT  IAC
## 2158 324000.00000000   900.00000000 59353 0.7500000000000
+  116   C06C07C08C09C10C11C12C13C14C16C19C20C21C22C23C24C25
+        C26C27C28C29C30C32C33C34C35C36C37C38C39C40C41C42C43
+        C44C45C46E01E02E03E04E05E07E08E09E11E12E13E14E15E18
+        E19E21E24E25E26E27E30E31E33E36G01G02G03G04G05G06G07
+        G08G09G10G12G13G14G15G16G17G18G19G20G21G22G23G24G25
+        G26G27G28G29G30G31G32J01J02J03R01R02R03R04R05R07R08
+        R09R11R12R13R14R15R16R17R18R19R20R21R22R24  0  0  0
++        10  9  9 10 10  9  8  9  9  9  8  8 10  8  9  9  8
++         8  8  9  8  8  8  7  9  7  9  9 10 10 10 10  8  9
++         9  8  6  7  8  7  7  7  8  7  9  9  7  7  8  7  8
++         9  8  9  6  7  7  7  7  8  7  9  7  7  8  8  8  7
++         8  8  7  8  7  8  8  8  8  8  7  8  9  9  8  7  7
++         7  8  8  7  7  8  7 11 10 11  9  9  7  7 10  9  8
++        12  8  8  9  7  8  8  7  8 10  8  9  9  7  0  0  0
%c M  cc GPS ccc cccc cccc cccc cccc ccccc ccccc ccccc ccccc
%c cc cc ccc ccc cccc cccc cccc cccc ccccc ccccc ccccc ccccc
%f  0.0000000  0.000000000  0.00000000000  0.000000000000000
%f  0.0000000  0.000000000  0.00000000000  0.000000000000000
%i    0    0    0    0      0      0      0      0         0
%i    0    0    0    0      0      0      0      0         0
/* IAC                                ULTRA-RAPID PREDICTION
/* S/V CLOCKS ARE ALIGNED TO GNSS TIME                      
/* G:C1WC2W R:C1PC2P E:C1XC5X C:C2IC6I J:C1CC2S             
/* PCV:IGS14_2148 OL/AL:FES2004  NONE     YN ORB:CoN CLK:CoN
*  2021 05 20  7 30  0.00000000
PC06 -18427.981594  20221.285840 -31731.182496    405.222717
PC07 -21159.826944  36037.911344   2940.182820    162.014874
PC08  -5001.727178  31121.034114  28302.572777   -890.623715
PC09  -1083.111353  24545.293591 -33934.671499    510.554985
PC10  -9047.119823  37695.266584  16233.354598    -40.378974
PC11 -24693.265535   1738.634188  12901.617547    351.299584
PC12 -25641.299763 -10041.444346  -4440.174958    876.604769
PC13   4013.678689  37993.438317  18206.993978    267.738277
PC14 -22560.971261  12169.858829  10984.105381    779.853692
PC16 -14487.174640  21336.354963 -33267.944059   -848.128222
PC19  20319.779239 -19057.694707  -1809.209475    841.504819
PC20  21478.977431  -5108.758229 -17067.238095   -909.383755
PC21  -9755.859533 -12693.855839  22881.619978   -939.818106
PC22   7410.382872 -22385.338619  14959.983611   -955.096914
PC23   1348.675713  26731.393903  -7887.713693   -911.749231
PC24 -17243.228761  -6008.002604 -21102.665684   -857.668294
PC25 -10577.518232  15728.943328 -20490.531361   -914.258457
PC26 -13940.986384 -21992.948167  -9997.072411    904.556586
PC27  19932.584885  14705.260411  12812.048014    534.611442
PC28    907.197888  16410.398076  22551.783581    -72.299022
PC29  18260.561329  -9198.918073 -18999.972692    394.718473
PC30  27371.683275   3722.979557  -3877.047445    467.651510
PC32   9872.593821  12588.891958 -22842.988249   -931.599174
PC33 -20258.253983  19077.683901   1938.859326   -937.580652
PC34 -27345.709016  -3309.020338   4548.585034   -669.405620
PC35  -1095.884077 -16391.446265 -22571.295508   -272.468250
PC36  11158.010320 -15113.850514  20661.148097   -726.560523
PC37  13036.373782  22902.775330   9220.156174   -889.471661
PC38  -2482.783058  34761.446534  23843.311878    149.915263
PC39 -10412.094641  22879.769482 -33852.159407     31.217178
PC40 -17955.364849  35367.123382  14102.844442    162.740619
PC41  -7620.520080  22457.679238 -14654.405912   -944.460669
PC42 -21258.521890   4303.565610  17595.487743   -914.593805
PC43 -18795.157424   8870.238125  18624.517928   -738.370664
PC44 -20266.242344 -14194.660611 -12951.981772    197.024817
PC45  -1511.412466 -26735.985994   7826.518462    444.928359
PC46  17092.052719   4940.889798  21512.787740    262.768795
PE01 -17199.012154   3865.116987 -23779.420050  -1111.570171
PE02  17204.636699  -3995.398929  23747.802278    220.311183
PE03  28570.731388  -4793.027709  -6112.058685   -432.855146
PE04 -21785.324976  16054.346467 -11977.880871   -774.721328
PE05  18675.138147   9476.836727 -20912.205868   -279.558575
PE07   2001.434111 -18073.973040  23370.518128   -539.824433
PE08  21487.381725 -16228.149914  12318.351464   5999.281350
PE09  -1739.518562  17900.029995 -23497.530873   5661.805845
PE11   8008.367282  22406.021186  17583.220234   5958.112348
PE12 -11309.941826  11604.087458  24768.129767   5201.775531
PE13  -7733.412866 -22257.001533 -17922.088444    416.642516
PE14 -15532.708535 -16114.673157 -20698.353386  -1437.214749
PE15  11162.785941 -11635.244952 -24819.676882    813.325272
PE18  25207.854749   5481.238208   8047.744737  -1573.338138
PE19 -28257.432459   3169.564000   8236.546810    281.375882
PE21 -11225.784832 -16969.896349 -21500.635216   -665.917499
PE24  -2177.284028  28935.737540   5883.918747   -909.748921
PE25  11121.076874  17158.818186  21406.637609   -534.367541
PE26 -22293.380858 -19472.909438    320.208876   1790.003303
PE27   1482.716805 -28796.967058  -6671.835657    -36.245706
PE30  13767.183745 -22884.434775  12743.011196   2931.042773
PE31 -13225.094675  23621.580470 -11965.052933   -481.342682
PE33 -23460.863909  -5825.547973  17093.047356   -468.794871
PE36  22033.056082  19750.681376    486.944024   -209.531340
PG01 -19692.382102 -10499.684990  14405.975470    683.865421
PG02  12457.122029  22322.205967   7755.352316   -605.701291
PG03 -15706.221584   -413.047576  21312.808689   -168.886962
PG04 -25930.243262  -1630.007102   5673.733057   -196.969257
PG05   8778.538024  15790.879462 -19563.987534    -42.465108
PG06   2291.549897  20934.651146  16207.171343     17.586571
PG07 -15723.113203   3698.012937 -20813.592405    155.873320
PG08 -21478.656251  -6877.288511 -14278.727237    -21.881233
PG09 -25087.280814   7200.455217  -5054.733777   -346.547117
PG10  11605.841908 -23603.161300  -2317.506076   -125.567968
PG12  14660.234989   3558.675546  21594.560398    -43.533191
PG13  13664.308136  13068.294512 -18840.405243    134.282888
PG14 -13015.834183  22977.880150  -2696.327547     83.280456
PG15  22324.365460   5326.490381 -14022.717839   -148.158769
PG16  -3466.513612 -19352.480899 -17880.672832   -328.040864
PG17 -14689.289741  13138.935153  18231.695230    445.250296
PG18  13066.734264  -7585.951515 -21856.351117    349.907170
PG19  -5657.479077  14376.724994  21300.187007      2.390739
PG20  14015.453060   7830.913103 -21184.420759    522.011605
PG21 -20931.154737 -14924.269907   8323.058566    119.385170
PG22 -12661.301666 -11034.603997  20800.388682   -609.796023
PG23  16090.966600 -16829.946106 -12753.235621    105.141680
PG24  20992.654277  13482.974337   9414.391522     88.343342
PG25  17206.275282 -10206.678836  17068.158301    140.539205
PG26   1840.703629 -24646.455263  -9411.347697     87.655455
PG27 -11245.166823 -12711.648506 -20701.573906   -133.137348
PG28  -9794.312636  24512.381380   4356.764063    568.449841
PG29  25695.810686  -4668.665254  -5024.229135   -350.108889
PG30  -6181.405360  16388.041846 -19842.743281   -428.395738
PG31  -4049.897171 -22142.910524  13640.815511   -118.311512
PG32  11648.414098 -14852.272242  18730.119471     20.860209
PJ01 -36172.287142  21296.921517    840.614167   -381.671611
PJ02 -20892.023335  31265.822323 -14365.409318      0.036576
PJ03 -28809.653243  22704.504111  25910.857384     -5.882708
PR01 -20624.736994   7150.052997  13189.984272     79.728590
PR02 -18049.194058  16546.026782  -7205.923204    479.303532
PR03  -4030.149439  14667.271155 -20443.111954     36.271452
PR04  11943.211668   4330.664156 -22085.785183     87.593425
PR05  21293.441760  -8224.961726 -11347.714728     72.086356
PR07   3291.351965 -14369.386704  20848.336473    -42.440138
PR08 -12088.370976  -4395.854314  22090.848322    -59.075720
PR09   5694.156253 -19548.345557  15429.958475     -6.232423
PR11  -9559.689561 -16920.968575 -16518.799370     -5.362551
PR12 -10814.262175   1967.652873 -22993.210019    230.387219
PR13  -5782.028274  18987.307570 -16036.819740    -55.010069
PR14   2819.761139  25321.762885   1052.819424     64.472283
PR15   9539.174825  16609.820069  16863.759949    103.746790
PR16  10806.743775  -3234.874245  22849.719910    -15.275631
PR17   7948.933906  13799.968386  19940.916329    425.589429
PR18  20734.919920  13266.495342   6587.713046     77.158230
PR19  22635.039038   6811.336885  -9592.644325   -144.418080
PR20  10431.726659  -5868.015791 -22515.873903    -49.416244
PR21  -9051.731808 -13978.846670 -19318.018888   -210.262513
PR22 -21232.423631 -13115.840414  -5540.574879   -113.568136
PR24  -9912.080407   6849.831806  22493.055271     43.355873
EOF
